NORAD_CAT_ID,OBJECT_NAME,OBJECT_TYPE,EPOCH,MEAN_MOTION,ECCENTRICITY,INCLINATION,RA_OF_ASC_NODE,ARG_OF_PERICENTER,MEAN_ANOMALY,BSTAR,MEAN_MOTION_DOT,MEAN_MOTION_DDOT,TLE_LINE0,TLE_LINE1,TLE_LINE2,SEMIMAJOR_AXIS,PERIOD,APOGEE,PERIGEE,DECAYED
53602.0,STARLINK-4648,PAYLOAD,2022-09-12 12:00:00,15.73277131,0.0001124,53.2157,211.9206,73.1959,7.2358,-0.00064644,-0.00090668,0.0,0 STARLINK-4648,1 53602U 22104Q   22255.50001157 -.00090668  00000-0 -64644-3 0  9998,2 53602  53.2157 211.9206 0001124  73.1959   7.2358 15.73277131  1300,6727.675,91.529,350.296,348.784,0.0
53602.0,STARLINK-4648,PAYLOAD,2022-09-12 20:00:01,15.73186356,9.27e-05,53.2158,210.2695,85.5135,83.9727,0.00047099,0.00065962,0.0,0 STARLINK-4648,1 53602U 22104Q   22255.83335648  .00065962  00000-0  47099-3 0  9991,2 53602  53.2158 210.2695 0000927  85.5135  83.9727 15.73186356  2500,6727.934,91.534,350.423,349.175,0.0
53602.0,STARLINK-4648,PAYLOAD,2022-09-12 22:00:00,15.73211936,9.3e-05,53.2159,209.8576,85.5546,196.0923,0.00020036,0.00027606,0.0,0 STARLINK-4648,1 53602U 22104Q   22255.91667824  .00027606  00000-0  20036-3 0  9999,2 53602  53.2159 209.8576 0000930  85.5546 196.0923 15.73211936  1307,6727.861,91.532,350.352,349.1,0.0
53602.0,STARLINK-4648,PAYLOAD,2022-09-13 06:00:00,15.73197208,0.0001046,53.2156,208.2103,71.7157,298.8673,-0.00038097,-0.00053738,0.0,0 STARLINK-4648,1 53602U 22104Q   22256.25001157 -.00053738  00000-0 -38097-3 0  9991,2 53602  53.2156 208.2103 0001046  71.7157 298.8673 15.73197208  2564,6727.903,91.533,350.472,349.064,0.0
53602.0,STARLINK-4648,PAYLOAD,2022-09-13 14:00:01,15.73169552,9.28e-05,53.2155,206.5593,82.2003,17.2845,-0.00012136,-0.00017593,0.0,0 STARLINK-4648,1 53602U 22104Q   22256.58334491 -.00017593  00000-0 -12136-3 0  9992,2 53602  53.2155 206.5593 0000928  82.2003  17.2845 15.73169552  1308,6727.982,91.535,350.471,349.223,0.0
53602.0,STARLINK-4648,PAYLOAD,2022-09-13 16:00:00,15.7316619,9.05e-05,53.2157,206.1465,86.5162,125.1913,-9.7787e-05,-0.00014299,0.0,0 STARLINK-4648,1 53602U 22104Q   22256.66667824 -.00014299  00000-0 -97787-4 0  9996,2 53602  53.2157 206.1465 0000905  86.5162 125.1913 15.73166190  2639,6727.9919999999975,91.535,350.465,349.24800000000016,0.0
53602.0,STARLINK-4648,PAYLOAD,2022-09-13 22:00:00,15.73149909,0.0001028,53.2155,204.9095,93.1711,95.2152,0.00035179,0.00048933,0.0,0 STARLINK-4648,1 53602U 22104Q   22256.91667824  .00048933  00000-0  35179-3 0  9990,2 53602  53.2155 204.9095 0001028  93.1711  95.2152 15.73149909  1307,6728.038000000001,91.536,350.595,349.211,0.0
53602.0,STARLINK-4648,PAYLOAD,2022-09-14 14:00:01,15.73161128,7.979999999999999e-05,53.2156,201.6111,88.4443,277.7008,0.00040405,0.00056372,0.0,0 STARLINK-4648,1 53602U 22104Q   22257.58334491  .00056372  00000-0  40405-3 0  9999,2 53602  53.2156 201.6111 0000798  88.4443 277.7008 15.73161128  2779,6728.005999999999,91.535,350.408,349.334,0.0
53602.0,STARLINK-4648,PAYLOAD,2022-09-14 22:00:00,15.73236853,9.65e-05,53.2155,199.9616,91.4665,3.5637,-6.1887e-05,-9.309e-05,0.0,0 STARLINK-4648,1 53602U 22104Q   22257.91667824 -.00009309  00000-0 -61887-4 0  9993,2 53602  53.2155 199.9616 0000965  91.4665   3.5637 15.73236853  1302,6727.79,91.531,350.30400000000014,349.006,0.0
53602.0,STARLINK-4648,PAYLOAD,2022-09-15 04:00:00,15.73217612,0.00011,53.215,198.7261,81.5758,350.1867,-2.9982e-06,-1.041e-05,0.0,0 STARLINK-4648,1 53602U 22104Q   22258.16667824 -.00001041  00000-0 -29982-5 0  9997,2 53602  53.2150 198.7261 0001100  81.5758 350.1867 15.73217612  2876,6727.845,91.532,350.45,348.97,0.0
53602.0,STARLINK-4648,PAYLOAD,2022-09-15 14:00:01,15.73219225,0.0001164,53.2147,196.6625,93.2883,179.705,-7.0411e-06,-1.609e-05,0.0,0 STARLINK-4648,1 53602U 22104Q   22258.58334491 -.00001609  00000-0 -70411-5 0  9997,2 53602  53.2147 196.6625 0001164  93.2883 179.7050 15.73219225  1300,6727.84,91.532,350.48800000000006,348.922,0.0
53602.0,STARLINK-4648,PAYLOAD,2022-09-15 22:00:00,15.73241953,0.0001002999999999,53.2149,195.013,101.1862,260.7379,-0.00086264,-0.00120182,0.0,0 STARLINK-4648,1 53602U 22104Q   22258.91667824 -.00120182  00000-0 -86264-3 0  9992,2 53602  53.2149 195.0130 0001003 101.1862 260.7379 15.73241953  1302,6727.776,91.531,350.315,348.966,0.0
53602.0,STARLINK-4648,PAYLOAD,2022-09-16 06:00:00,15.73113343,7.950000000000001e-05,53.2149,193.3653,85.5905,5.2704,0.00082755,0.00116712,0.0,0 STARLINK-4648,1 53602U 22104Q   22259.25001157  .00116712  00000-0  82755-3 0  9994,2 53602  53.2149 193.3653 0000795  85.5905   5.2704 15.73113343  3041,6728.142,91.538,350.542,349.472,0.0
53602.0,STARLINK-4648,PAYLOAD,2022-09-16 14:00:01,15.7320435,0.0001199999999999,53.2176,191.7137,94.3168,85.4118,1.4721e-06,-4.13e-06,0.0,0 STARLINK-4648,1 53602U 22104Q   22259.58334491 -.00000413  00000-0  14721-5 0  9991,2 53602  53.2176 191.7137 0001200  94.3168  85.4118 15.73204350  1306,6727.8830000000025,91.533,350.555,348.94,0.0
53602.0,STARLINK-4648,PAYLOAD,2022-09-16 22:00:00,15.73244864,0.0001431999999999,53.215,190.0644,97.0148,171.7295,-0.00053439,-0.00075097,0.0,0 STARLINK-4648,1 53602U 22104Q   22259.91667824 -.00075097  00000-0 -53439-3 0  9995,2 53602  53.2150 190.0644 0001432  97.0148 171.7295 15.73244864  1307,6727.767,91.531,350.596,348.6690000000001,0.0
53602.0,STARLINK-4648,PAYLOAD,2022-09-17 06:00:00,15.731867,0.0001472,53.2143,188.4166,87.5676,270.1264,0.00045425,0.00063579,0.0,0 STARLINK-4648,1 53602U 22104Q   22260.25001157  .00063579  00000-0  45425-3 0  9991,2 53602  53.2143 188.4166 0001472  87.5676 270.1264 15.73186700  3196,6727.933000000001,91.534,350.788,348.80800000000005,0.0
53602.0,STARLINK-4648,PAYLOAD,2022-09-17 14:00:01,15.73190952,0.0001307,53.2142,186.7651,102.664,343.9884,0.00019268,0.00026496,0.0,0 STARLINK-4648,1 53602U 22104Q   22260.58334491  .00026496  00000-0  19268-3 0  9990,2 53602  53.2142 186.7651 0001307 102.6640 343.9884 15.73190952  1304,6727.920999999999,91.534,350.665,348.907,0.0
53602.0,STARLINK-4648,PAYLOAD,2022-09-17 22:00:00,15.73230609,0.0001403,53.2144,185.116,101.3897,74.1823,-0.00045625,-0.00064249,0.0,0 STARLINK-4648,1 53602U 22104Q   22260.91667824 -.00064249  00000-0 -45625-3 0  9992,2 53602  53.2144 185.1160 0001403 101.3897  74.1823 15.73230609  1301,6727.808000000001,91.531,350.617,348.72900000000016,0.0
53602.0,STARLINK-4648,PAYLOAD,2022-09-18 04:00:00,15.73168614,0.0001409,53.2145,183.8802,94.2144,58.0692,0.00049145,0.00068826,0.0,0 STARLINK-4648,1 53602U 22104Q   22261.16667824  .00068826  00000-0  49145-3 0  9994,2 53602  53.2145 183.8802 0001409  94.2144  58.0692 15.73168614  3348,6727.985,91.535,350.798,348.902,0.0
53602.0,STARLINK-4648,PAYLOAD,2022-09-18 14:00:01,15.73163794,0.0001215,53.2146,181.8163,106.8678,246.6568,0.00049447,0.00069241,0.0,0 STARLINK-4648,1 53602U 22104Q   22261.58335648  .00069241  00000-0  49447-3 0  9993,2 53602  53.2146 181.8163 0001215 106.8678 246.6568 15.73163794  3402,6727.998000000001,91.535,350.681,349.046,0.0
53602.0,STARLINK-4648,PAYLOAD,2022-09-18 22:00:00,15.73261636,0.0001097,53.2146,180.1675,104.1471,338.2097,-0.00066905,-0.00093721,0.0,0 STARLINK-4648,1 53602U 22104Q   22261.91667824 -.00093721  00000-0 -66905-3 0  9994,2 53602  53.2146 180.1675 0001097 104.1471 338.2097 15.73261636  1308,6727.719,91.53,350.32199999999995,348.846,0.0
53602.0,STARLINK-4648,PAYLOAD,2022-09-19 06:00:02,15.73189064,9.87e-05,53.2141,178.5192,95.4481,75.9401,0.00017561,0.00024085,0.0,0 STARLINK-4648,1 53602U 22104Q   22262.25002315  .00024085  00000-0  17561-3 0  9999,2 53602  53.2141 178.5192 0000987  95.4481  75.9401 15.73189064  3511,6727.926,91.534,350.455,349.12699999999984,0.0
53602.0,STARLINK-4648,PAYLOAD,2022-09-19 14:00:01,15.73159729,0.0001161,53.2142,176.8677,109.3872,150.8756,0.0002908999999999,0.00040332,0.0,0 STARLINK-4648,1 53602U 22104Q   22262.58334491  .00040332  00000-0  29090-3 0  9991,2 53602  53.2142 176.8677 0001161 109.3872 150.8756 15.73159729  1301,6728.01,91.536,350.656,349.094,0.0
53602.0,STARLINK-4648,PAYLOAD,2022-09-19 22:00:00,15.73181127,0.0001330999999999,53.2145,175.21900000000005,107.4752,241.6871,-3.1314e-05,-5.008e-05,0.0,0 STARLINK-4648,1 53602U 22104Q   22262.91667824 -.00005008  00000-0 -31314-4 0  9993,2 53602  53.2145 175.2190 0001331 107.4752 241.6871 15.73181127  1306,6727.949000000001,91.534,350.709,348.918,0.0
53602.0,STARLINK-4648,PAYLOAD,2022-09-20 14:00:01,15.73157601,0.000109,53.2148,171.9191,113.4657,53.5358,0.00041189,0.00057477,0.0,0 STARLINK-4648,1 53602U 22104Q   22263.58334491  .00057477  00000-0  41189-3 0  9993,2 53602  53.2148 171.9191 0001090 113.4657  53.5358 15.73157601  1306,6728.016,91.536,350.61400000000015,349.148,0.0
53602.0,STARLINK-4648,PAYLOAD,2022-09-20 22:00:01,15.73232191,0.0001062,53.215,170.2708,110.9176,145.0428,-0.00026075,-0.00037102,0.0,0 STARLINK-4648,1 53602U 22104Q   22263.91668981 -.00037102  00000-0 -26075-3 0  9996,2 53602  53.2150 170.2708 0001062 110.9176 145.0428 15.73232191  3778,6727.803000000001,91.531,350.3830000000001,348.954,0.0
53602.0,STARLINK-4648,PAYLOAD,2022-09-21 22:00:00,15.73232495,0.0001144,53.2167,165.3211,130.1,32.5612,-0.00029748,-0.00042217,0.0,0 STARLINK-4648,1 53602U 22104Q   22264.91667824 -.00042217  00000-0 -29748-3 0  9995,2 53602  53.2167 165.3211 0001144 130.1000  32.5612 15.73232495  1300,6727.803000000001,91.531,350.43699999999984,348.898,0.0
53602.0,STARLINK-4648,PAYLOAD,2022-09-22 06:00:00,15.73247462,9.13e-05,53.215,163.6737,108.9559,142.6355,-0.00010844,-0.0001584,0.0,0 STARLINK-4648,1 53602U 22104Q   22265.25001157 -.00015840  00000-0 -10844-3 0  9993,2 53602  53.2150 163.6737 0000913 108.9559 142.6355 15.73247462  3984,6727.76,91.53,350.23900000000015,349.011,0.0
53602.0,STARLINK-4648,PAYLOAD,2022-09-22 14:00:01,15.73371522,9.75e-05,53.2163,162.0211,112.9254,227.6324,-0.0041953999999999,-0.00556119,0.0,0 STARLINK-4648,1 53602U 22104Q   22265.58334491 -.00556119  00000-0 -41954-2 0  9993,2 53602  53.2163 162.0211 0000975 112.9254 227.6324 15.73371522  1302,6727.406,91.523,349.927,348.615,0.0
